STARLINK-3633
1 51793U 22017AB  26061.16668981  .00135279  00000+0  39914-2 0  9991
2 51793  53.2193  18.8920 0001267  36.7533 248.2206 15.34018462  5813
